{
    "links": {
        "self": "http://www.neowsapp.com/rest/v1/neo/3314046?api_key=iIulBulltgU6a56xZRHN4H3l9WmuAYTsLGpBGhQ2"
    },
    "id": "3314046",
    "neo_reference_id": "3314046",
    "name": "(2006 BF55)",
    "designation": "2006 BF55",
    "nasa_jpl_url": "http://ssd.jpl.nasa.gov/sbdb.cgi?sstr=3314046",
    "absolute_magnitude_h": 25.7,
    "estimated_diameter": {
        "kilometers": {
            "estimated_diameter_min": 0.0192555078,
            "estimated_diameter_max": 0.0430566244
        },
        "meters": {
            "estimated_diameter_min": 19.2555078188,
            "estimated_diameter_max": 43.0566244241
        },
        "miles": {
            "estimated_diameter_min": 0.0119648141,
            "estimated_diameter_max": 0.0267541378
        },
        "feet": {
            "estimated_diameter_min": 63.1742402722,
            "estimated_diameter_max": 141.2618956756
        }
    },
    "is_potentially_hazardous_asteroid": false,
    "close_approach_data": [
        {
            "close_approach_date": "2006-01-15",
            "close_approach_date_full": "2006-Jan-15 07:30",
            "epoch_date_close_approach": 1137310200000,
            "relative_velocity": {
                "kilometers_per_second": "4.8766279716",
                "kilometers_per_hour": "17555.8606979001",
                "miles_per_hour": "10908.5291097591"
            },
            "miss_distance": {
                "astronomical": "0.0513904941",
                "lunar": "19.9909022049",
                "kilometers": "7687908.455607567",
                "miles": "4777044.7998037446"
            },
            "orbiting_body": "Earth"
        },
        {
            "close_approach_date": "2067-12-08",
            "close_approach_date_full": "2067-Dec-08 16:22",
            "epoch_date_close_approach": 3090586920000,
            "relative_velocity": {
                "kilometers_per_second": "15.3392653427",
                "kilometers_per_hour": "55221.3552336008",
                "miles_per_hour": "34312.4026450116"
            },
            "miss_distance": {
                "astronomical": "0.3734810365",
                "lunar": "145.2841231985",
                "kilometers": "55871967.545792255",
                "miles": "34717230.773572919"
            },
            "orbiting_body": "Earth"
        }
    ],
    "orbital_data": {
        "orbit_id": "9",
        "orbit_determination_date": "2017-04-06 09:09:15",
        "first_observation_date": "2006-01-26",
        "last_observation_date": "2006-02-06",
        "data_arc_in_days": 11,
        "observations_used": 29,
        "orbit_uncertainty": "7",
        "minimum_orbit_intersection": ".047065",
        "jupiter_tisserand_invariant": "4.113",
        "epoch_osculation": "2459000.5",
        "eccentricity": ".3931138177195899",
        "semi_major_axis": "1.698093897756444",
        "inclination": "3.35841787698846",
        "ascending_node_longitude": "306.6038526042742",
        "orbital_period": "808.2411889296544",
        "perihelion_distance": "1.03054972276307",
        "perihelion_argument": "172.2334733828324",
        "aphelion_distance": "2.365638072749819",
        "perihelion_time": "2458600.467536468647",
        "mean_anomaly": "178.1790990657136",
        "mean_motion": ".4454115985807953",
        "equinox": "J2000",
        "orbit_class": {
            "orbit_class_type": "AMO",
            "orbit_class_description": "Near-Earth asteroid orbits similar to that of 1221 Amor",
            "orbit_class_range": "1.017 AU < q (perihelion) < 1.3 AU"
        }
    },
    "is_sentry_object": false
}